SWAS                    
1 25560U 98071A   26068.53487068  .00004636  00000+0  29986-3 0  9991
2 25560  69.8952 124.3662 0004099  14.3215 345.8065 15.08888192482231
STARLINK-3302           
1 50842U 22001AR  26068.60980750 -.00000050  00000+0  14976-4 0  9997
2 50842  53.2182 179.4820 0001456  96.2762 263.8396 15.08837644230245
